{
  "type": "FeatureCollection",
  "features": [
    {
      "type": "Feature",
      "properties": {
        "norad_id": 32376,
        "name": "COSMO-SKYMED 2",
        "group": "resource",
        "lat": 5.571899846256919,
        "lon": 167.7799655184605,
        "alt_km": 624.5047262381386,
        "timestamp": "2025-12-13T05:42:57.153653+00:00",
        "meta_object_name": "COSMO-SKYMED 2",
        "meta_object_id": "2007-059A",
        "meta_epoch": "2025-12-12T07:00:25.938432",
        "meta_mean_motion": 14.82165657,
        "meta_eccentricity": 0.00015058,
        "meta_inclination": 97.8811,
        "meta_ra_of_asc_node": 167.6226,
        "meta_arg_of_pericenter": 84.8378,
        "meta_mean_anomaly": 275.3007,
        "meta_ephemeris_type": 0,
        "meta_classification_type": "U",
        "meta_norad_cat_id": 32376,
        "meta_element_set_no": 999,
        "meta_rev_at_epoch": 97431,
        "meta_bstar": 0.00012412125,
        "meta_mean_motion_dot": 9.36e-06,
        "meta_mean_motion_ddot": 0,
        "tle_line1": "1 32376U 07059A   25346.29196688  .00000936  00000+0  12412-3 0  9991",
        "tle_line2": "2 32376  97.8811 167.6226 0001505  84.8378 275.3007 14.82165657974319"
      },
      "geometry": {
        "type": "Point",
        "coordinates": [
          167.7799655184605,
          5.571899846256919
        ]
      }
    },
    {
      "type": "Feature",
      "properties": {
        "norad_id": 32382,
        "name": "RADARSAT-2",
        "group": "resource",
        "lat": -40.72670778167005,
        "lon": 164.35220927779216,
        "alt_km": 798.8941523953972,
        "timestamp": "2025-12-13T05:42:57.153664+00:00",
        "meta_object_name": "RADARSAT-2",
        "meta_object_id": "2007-061A",
        "meta_epoch": "2025-12-12T06:51:13.621248",
        "meta_mean_motion": 14.29981086,
        "meta_eccentricity": 0.00010998,
        "meta_inclination": 98.5802,
        "meta_ra_of_asc_node": 350.8822,
        "meta_arg_of_pericenter": 85.5127,
        "meta_mean_anomaly": 274.6181,
        "meta_ephemeris_type": 0,
        "meta_classification_type": "U",
        "meta_norad_cat_id": 32382,
        "meta_element_set_no": 999,
        "meta_rev_at_epoch": 93924,
        "meta_bstar": -2.0578712e-05,
        "meta_mean_motion_dot": -9.7e-07,
        "meta_mean_motion_ddot": 0,
        "tle_line1": "1 32382U 07061A   25346.28557432 -.00000097  00000+0 -20579-4 0  9992",
        "tle_line2": "2 32382  98.5802 350.8822 0001099  85.5127 274.6181 14.29981086939241"
      },
      "geometry": {
        "type": "Point",
        "coordinates": [
          164.35220927779216,
          -40.72670778167005
        ]
      }
    },
    {
      "type": "Feature",
      "properties": {
        "norad_id": 32783,
        "name": "CARTOSAT-2A",
        "group": "resource",
        "lat": 39.70968658750203,
        "lon": -136.42341650894224,
        "alt_km": 635.6981370312515,
        "timestamp": "2025-12-13T05:42:57.153675+00:00",
        "meta_object_name": "CARTOSAT-2A",
        "meta_object_id": "2008-021A",
        "meta_epoch": "2025-12-12T07:58:38.853696",
        "meta_mean_motion": 14.78937837,
        "meta_eccentricity": 0.00119396,
        "meta_inclination": 97.7929,
        "meta_ra_of_asc_node": 36.1684,
        "meta_arg_of_pericenter": 6.2188,
        "meta_mean_anomaly": 353.9169,
        "meta_ephemeris_type": 0,
        "meta_classification_type": "U",
        "meta_norad_cat_id": 32783,
        "meta_element_set_no": 999,
        "meta_rev_at_epoch": 95118,
        "meta_bstar": 0.00025250782,
        "meta_mean_motion_dot": 1.814e-05,
        "meta_mean_motion_ddot": 0,
        "tle_line1": "1 32783U 08021A   25346.33239414  .00001814  00000+0  25251-3 0  9994",
        "tle_line2": "2 32783  97.7929  36.1684 0011939   6.2188 353.9169 14.78937837951181"
      },
      "geometry": {
        "type": "Point",
        "coordinates": [
          -136.42341650894224,
          39.70968658750203
        ]
      }
    },
    {
      "type": "Feature",
      "properties": {
        "norad_id": 33320,
        "name": "HUANJING 1A (HJ-1A)",
        "group": "resource",
        "lat": 12.713944669565015,
        "lon": -26.2227549163186,
        "alt_km": 606.5498505430587,
        "timestamp": "2025-12-13T05:42:57.153686+00:00",
        "meta_object_name": "HUANJING 1A (HJ-1A)",
        "meta_object_id": "2008-041A",
        "meta_epoch": "2025-12-12T06:59:37.671072",
        "meta_mean_motion": 14.83393499,
        "meta_eccentricity": 0.00202011,
        "meta_inclination": 97.6545,
        "meta_ra_of_asc_node": 334.6087,
        "meta_arg_of_pericenter": 35.8709,
        "meta_mean_anomaly": 324.3858,
        "meta_ephemeris_type": 0,
        "meta_classification_type": "U",
        "meta_norad_cat_id": 33320,
        "meta_element_set_no": 999,
        "meta_rev_at_epoch": 93069,
        "meta_bstar": 0.00030447621,
        "meta_mean_motion_dot": 2.455e-05,
        "meta_mean_motion_ddot": 0,
        "tle_line1": "1 33320U 08041A   25346.29140823  .00002455  00000+0  30448-3 0  9990",
        "tle_line2": "2 33320  97.6545 334.6087 0020201  35.8709 324.3858 14.83393499930690"
      },
      "geometry": {
        "type": "Point",
        "coordinates": [
          -26.2227549163186,
          12.713944669565015
        ]
      }
    },
    {
      "type": "Feature",
      "properties": {
        "norad_id": 33321,
        "name": "HUANJING 1B (HJ-1B)",
        "group": "resource",
        "lat": -52.65106118701736,
        "lon": 149.0807137661586,
        "alt_km": 652.4119824714098,
        "timestamp": "2025-12-13T05:42:57.153697+00:00",
        "meta_object_name": "HUANJING 1B (HJ-1B)",
        "meta_object_id": "2008-041B",
        "meta_epoch": "2025-12-12T05:59:46.665888",
        "meta_mean_motion": 14.82820323,
        "meta_eccentricity": 0.00381911,
        "meta_inclination": 97.6403,
        "meta_ra_of_asc_node": 338.267,
        "meta_arg_of_pericenter": 77.1817,
        "meta_mean_anomaly": 283.366,
        "meta_ephemeris_type": 0,
        "meta_classification_type": "U",
        "meta_norad_cat_id": 33321,
        "meta_element_set_no": 999,
        "meta_rev_at_epoch": 93070,
        "meta_bstar": 0.0003403018,
        "meta_mean_motion_dot": 2.737e-05,
        "meta_mean_motion_ddot": 0,
        "tle_line1": "1 33321U 08041B   25346.24984567  .00002737  00000+0  34030-3 0  9991",
        "tle_line2": "2 33321  97.6403 338.2670 0038191  77.1817 283.3660 14.82820323930705"
      },
      "geometry": {
        "type": "Point",
        "coordinates": [
          149.0807137661586,
          -52.65106118701736
        ]
      }
    },
    {
      "type": "Feature",
      "properties": {
        "norad_id": 33331,
        "name": "GEOEYE 1",
        "group": "resource",
        "lat": -7.064527865379256,
        "lon": -122.50183218671198,
        "alt_km": 681.48239797938,
        "timestamp": "2025-12-13T05:42:57.153709+00:00",
        "meta_object_name": "GEOEYE 1",
        "meta_object_id": "2008-042A",
        "meta_epoch": "2025-12-12T05:54:45.709632",
        "meta_mean_motion": 14.6481186,
        "meta_eccentricity": 0.00027392,
        "meta_inclination": 98.1253,
        "meta_ra_of_asc_node": 57.5333,
        "meta_arg_of_pericenter": 278.448,
        "meta_mean_anomaly": 81.6413,
        "meta_ephemeris_type": 0,
        "meta_classification_type": "U",
        "meta_norad_cat_id": 33331,
        "meta_element_set_no": 999,
        "meta_rev_at_epoch": 92278,
        "meta_bstar": 0.00019429048,
        "meta_mean_motion_dot": 9.89e-06,
        "meta_mean_motion_ddot": 0,
        "tle_line1": "1 33331U 08042A   25346.24636238  .00000989  00000+0  19429-3 0  9994",
        "tle_line2": "2 33331  98.1253  57.5333 0002739 278.4480  81.6413 14.64811860922783"
      },
      "geometry": {
        "type": "Point",
        "coordinates": [
          -122.50183218671198,
          -7.064527865379256
        ]
      }
    },
    {
      "type": "Feature",
      "properties": {
        "norad_id": 33396,
        "name": "THEOS",
        "group": "resource",
        "lat": -35.91410288942569,
        "lon": 51.594669775342744,
        "alt_km": 831.8232051877694,
        "timestamp": "2025-12-13T05:42:57.153720+00:00",
        "meta_object_name": "THEOS",
        "meta_object_id": "2008-049A",
        "meta_epoch": "2025-12-12T07:54:14.770368",
        "meta_mean_motion": 14.2009579,
        "meta_eccentricity": 0.00011616,
        "meta_inclination": 98.5864,
        "meta_ra_of_asc_node": 44.4305,
        "meta_arg_of_pericenter": 96.2065,
        "meta_mean_anomaly": 263.9244,
        "meta_ephemeris_type": 0,
        "meta_classification_type": "U",
        "meta_norad_cat_id": 33396,
        "meta_element_set_no": 999,
        "meta_rev_at_epoch": 89144,
        "meta_bstar": -2.0669722e-05,
        "meta_mean_motion_dot": -8.7e-07,
        "meta_mean_motion_ddot": 0,
        "tle_line1": "1 33396U 08049A   25346.32933762 -.00000087  00000+0 -20670-4 0  9995",
        "tle_line2": "2 33396  98.5864  44.4305 0001161  96.2065 263.9244 14.20095790891446"
      },
      "geometry": {
        "type": "Point",
        "coordinates": [
          51.594669775342744,
          -35.91410288942569
        ]
      }
    }
  ]
}